[{"OBJECT_NAME":"STARLINK-4648","OBJECT_ID":"2022-104Q","EPOCH":"2026-03-09T17:46:14.002176","MEAN_MOTION":15.08840128,"ECCENTRICITY":0.0001195,"INCLINATION":53.2169,"RA_OF_ASC_NODE":238.8318,"ARG_OF_PERICENTER":86.9618,"MEAN_ANOMALY":273.1511,"EPHEMERIS_TYPE":0,"CLASSIFICATION_TYPE":"U","NORAD_CAT_ID":53602,"ELEMENT_SET_NO":999,"REV_AT_EPOCH":19569,"BSTAR":-9.410075e-6,"MEAN_MOTION_DOT":-4.38e-6,"MEAN_MOTION_DDOT":0},{"OBJECT_NAME":"ASTRO-H (HITOMI)","OBJECT_ID":"2016-012A","EPOCH":"2026-03-09T04:06:47.322720","MEAN_MOTION":15.10001629,"ECCENTRICITY":0.0009877,"INCLINATION":31.0008,"RA_OF_ASC_NODE":359.8923,"ARG_OF_PERICENTER":325.8962,"MEAN_ANOMALY":34.1041,"EPHEMERIS_TYPE":0,"CLASSIFICATION_TYPE":"U","NORAD_CAT_ID":41337,"ELEMENT_SET_NO":999,"REV_AT_EPOCH":55215,"BSTAR":0.00025536822,"MEAN_MOTION_DOT":4.351e-5,"MEAN_MOTION_DDOT":0}]
